export const neo = {
	"links": {
		"self": "https://api.nasa.gov/neo/rest/v1/neo/3838083?api_key=DEMO_KEY"
	},
	"id": "3838083",
	"neo_reference_id": "3838083",
	"name": "(2019 CE)",
	"designation": "2019 CE",
	"nasa_jpl_url": "http://ssd.jpl.nasa.gov/sbdb.cgi?sstr=3838083",
	"absolute_magnitude_h": 20.924,
	"estimated_diameter": {
		"kilometers": {
			"estimated_diameter_min": 0.173682066,
			"estimated_diameter_max": 0.3883649061
		},
		"meters": {
			"estimated_diameter_min": 173.6820660269,
			"estimated_diameter_max": 388.3649061087
		},
		"miles": {
			"estimated_diameter_min": 0.107920999,
			"estimated_diameter_max": 0.2413186901
		},
		"feet": {
			"estimated_diameter_min": 569.8230695036,
			"estimated_diameter_max": 1274.1631185576
		}
	},
	"is_potentially_hazardous_asteroid": false,
	"close_approach_data": [{
		"close_approach_date": "2019-04-12",
		"epoch_date_close_approach": 1555052400000,
		"relative_velocity": {
			"kilometers_per_second": "7.8296891281",
			"kilometers_per_hour": "28186.8808612299",
			"miles_per_hour": "17514.2316106903"
		},
		"miss_distance": {
			"astronomical": "0.0995418757",
			"lunar": "38.7217903137",
			"kilometers": "14891252",
			"miles": "9252995"
		},
		"orbiting_body": "Earth"
	}],
	"orbital_data": {
		"orbit_id": "19",
		"orbit_determination_date": "2019-03-19 07:06:25",
		"first_observation_date": "2019-02-01",
		"last_observation_date": "2019-03-18",
		"data_arc_in_days": 45,
		"observations_used": 75,
		"orbit_uncertainty": "6",
		"minimum_orbit_intersection": ".0648512",
		"jupiter_tisserand_invariant": "3.628",
		"epoch_osculation": "2458600.5",
		"eccentricity": ".5227141634180089",
		"semi_major_axis": "2.025358244346005",
		"inclination": "5.657266609700294",
		"ascending_node_longitude": "116.58105107",
		"orbital_period": "1052.812917955519",
		"perihelion_distance": ".9666748040309158",
		"perihelion_argument": "67.50163119987086",
		"aphelion_distance": "3.084041684661095",
		"perihelion_time": "2458571.623735033729",
		"mean_anomaly": "9.87398160733493",
		"mean_motion": ".3419410931042638",
		"equinox": "J2000",
		"orbit_class": {
			"orbit_class_type": "APO",
			"orbit_class_description": "Near-Earth asteroid orbits which cross the Earth’s orbit similar to that of 1862 Apollo",
			"orbit_class_range": "a (semi-major axis) > 1.0 AU; q (perihelion) < 1.017 AU"
		}
	},
	"is_sentry_object": false
}